{"fetched_at":"2026-03-29T02:12:04Z","count":15717,"tles":[{"name":"STARLINK-31500","line1":"1 59305U 24056K   26087.39033910  .00000433  00000+0  25260-4 0  9998","line2":"2 59305  43.0003 125.1567 0001794 273.5764  86.4882 15.27582109114019","category":"Starlink"}]}