{
  "norad_id": 59305,
  "name": "STARLINK-31500",
  "history": [
    {
      "epoch": "2026-03-28T09:22:05.298240",
      "apogee_km": 484.2740882656981,
      "perigee_km": 481.8114736187217,
      "latitude_deg": 15.422985284032162,
      "longitude_deg": 147.97255359985866,
      "semi_major_axis_km": 6861.17978094221,
      "eccentricity": 0.00017946,
      "inclination_deg": 43.0003,
      "raan_deg": 125.1567,
      "arg_perigee_deg": 273.5764,
      "mean_anomaly_deg": 86.4882,
      "mean_motion_rev_day": 15.27582109
    }
  ]
}